[{"OBJECT_NAME":"ONEWEB-0380","OBJECT_ID":"2021-090AD","EPOCH":"2025-08-27T02:12:09.038592","MEAN_MOTION":13.19725226,"ECCENTRICITY":0.00019404,"INCLINATION":87.9271,"RA_OF_ASC_NODE":3.4449,"ARG_OF_PERICENTER":103.8735,"MEAN_ANOMALY":256.2613,"EPHEMERIS_TYPE":0,"CLASSIFICATION_TYPE":"U","NORAD_CAT_ID":49306,"ELEMENT_SET_NO":999,"REV_AT_EPOCH":18763,"BSTAR":7.6739077e-5,"MEAN_MOTION_DOT":4.4e-7,"MEAN_MOTION_DDOT":0},{"OBJECT_NAME":"ONEWEB-0381","OBJECT_ID":"2021-090AE","EPOCH":"2025-08-27T05:19:39.676800","MEAN_MOTION":13.207705,"ECCENTRICITY":0.00021914,"INCLINATION":87.9299,"RA_OF_ASC_NODE":333.0323,"ARG_OF_PERICENTER":102.1662,"MEAN_ANOMALY":257.9717,"EPHEMERIS_TYPE":0,"CLASSIFICATION_TYPE":"U","NORAD_CAT_ID":49307,"ELEMENT_SET_NO":999,"REV_AT_EPOCH":19102,"BSTAR":0.00032096913,"MEAN_MOTION_DOT":1.43e-6,"MEAN_MOTION_DDOT":0},{"OBJECT_NAME":"ONEWEB-0382","OBJECT_ID":"2021-090AF","EPOCH":"2025-08-27T05:01:26.295168","MEAN_MOTION":13.20773556,"ECCENTRICITY":0.00022671,"INCLINATION":87.9297,"RA_OF_ASC_NODE":333.0257,"ARG_OF_PERICENTER":98.5461,"MEAN_ANOMALY":261.5929,"EPHEMERIS_TYPE":0,"CLASSIFICATION_TYPE":"U","NORAD_CAT_ID":49308,"ELEMENT_SET_NO":999,"REV_AT_EPOCH":19101,"BSTAR":0.00016100378,"MEAN_MOTION_DOT":7.8e-7,"MEAN_MOTION_DDOT":0},{"OBJECT_NAME":"ONEWEB-0383","OBJECT_ID":"2021-090AG","EPOCH":"2025-08-27T01:33:04.156416","MEAN_MOTION":13.14502661,"ECCENTRICITY":0.0001972,"INCLINATION":87.9094,"RA_OF_ASC_NODE":348.2291,"ARG_OF_PERICENTER":95.7983,"MEAN_ANOMALY":264.3372,"EPHEMERIS_TYPE":0,"CLASSIFICATION_TYPE":"U","NORAD_CAT_ID":49309,"ELEMENT_SET_NO":999,"REV_AT_EPOCH":18895,"BSTAR":0.00073430602,"MEAN_MOTION_DOT":2.85e-6,"MEAN_MOTION_DDOT":0},{"OBJECT_NAME":"ONEWEB-0384","OBJECT_ID":"2021-090AH","EPOCH":"2025-08-26T23:27:23.122944","MEAN_MOTION":13.20799647,"ECCENTRICITY":0.00024642,"INCLINATION":87.9319,"RA_OF_ASC_NODE":333.0943,"ARG_OF_PERICENTER":98.4721,"MEAN_ANOMALY":261.6691,"EPHEMERIS_TYPE":0,"CLASSIFICATION_TYPE":"U","NORAD_CAT_ID":49310,"ELEMENT_SET_NO":999,"REV_AT_EPOCH":19099,"BSTAR":-0.0059750756,"MEAN_MOTION_DOT":-2.417e-5,"MEAN_MOTION_DDOT":0},{"OBJECT_NAME":"ONEWEB-0385","OBJECT_ID":"2021-090AJ","EPOCH":"2025-08-27T04:50:06.269280","MEAN_MOTION":13.20772021,"ECCENTRICITY":0.00020734,"INCLINATION":87.9288,"RA_OF_ASC_NODE":333.0401,"ARG_OF_PERICENTER":99.3273,"MEAN_ANOMALY":260.8095,"EPHEMERIS_TYPE":0,"CLASSIFICATION_TYPE":"U","NORAD_CAT_ID":49311,"ELEMENT_SET_NO":999,"REV_AT_EPOCH":19099,"BSTAR":0.00041855481,"MEAN_MOTION_DOT":1.83e-6,"MEAN_MOTION_DDOT":0},{"OBJECT_NAME":"ONEWEB-0386","OBJECT_ID":"2021-090AK","EPOCH":"2025-08-27T05:15:05.902848","MEAN_MOTION":13.20771117,"ECCENTRICITY":0.00021968,"INCLINATION":87.9299,"RA_OF_ASC_NODE":333.0106,"ARG_OF_PERICENTER":96.4224,"MEAN_ANOMALY":263.7159,"EPHEMERIS_TYPE":0,"CLASSIFICATION_TYPE":"U","NORAD_CAT_ID":49312,"ELEMENT_SET_NO":999,"REV_AT_EPOCH":19101,"BSTAR":0.00024588466,"MEAN_MOTION_DOT":1.13e-6,"MEAN_MOTION_DDOT":0},{"OBJECT_NAME":"ONEWEB-0387","OBJECT_ID":"2021-090AL","EPOCH":"2025-08-26T23:25:05.422080","MEAN_MOTION":13.20773451,"ECCENTRICITY":0.0002167,"INCLINATION":87.9288,"RA_OF_ASC_NODE":333.1142,"ARG_OF_PERICENTER":106.1085,"MEAN_ANOMALY":254.0287,"EPHEMERIS_TYPE":0,"CLASSIFICATION_TYPE":"U","NORAD_CAT_ID":49313,"ELEMENT_SET_NO":999,"REV_AT_EPOCH":19098,"BSTAR":0.00021072317,"MEAN_MOTION_DOT":9.9e-7,"MEAN_MOTION_DDOT":0},{"OBJECT_NAME":"ONEWEB-0388","OBJECT_ID":"2021-090AM","EPOCH":"2025-08-27T02:05:21.856128","MEAN_MOTION":13.19724368,"ECCENTRICITY":0.00019554,"INCLINATION":87.9269,"RA_OF_ASC_NODE":3.4521,"ARG_OF_PERICENTER":97.093,"MEAN_ANOMALY":263.0425,"EPHEMERIS_TYPE":0,"CLASSIFICATION_TYPE":"U","NORAD_CAT_ID":49314,"ELEMENT_SET_NO":999,"REV_AT_EPOCH":18762,"BSTAR":6.2446911e-5,"MEAN_MOTION_DOT":3.8e-7,"MEAN_MOTION_DDOT":0},{"OBJECT_NAME":"ONEWEB-0389","OBJECT_ID":"2021-132A","EPOCH":"2025-08-26T22:42:20.500704","MEAN_MOTION":13.17648649,"ECCENTRICITY":0.00020658,"INCLINATION":87.9033,"RA_OF_ASC_NODE":64.4128,"ARG_OF_PERICENTER":95.7762,"MEAN_ANOMALY":264.3605,"EPHEMERIS_TYPE":0,"CLASSIFICATION_TYPE":"U","NORAD_CAT_ID":50469,"ELEMENT_SET_NO":999,"REV_AT_EPOCH":17933,"BSTAR":-7.785153e-6,"MEAN_MOTION_DOT":1.0e-7,"MEAN_MOTION_DDOT":0},{"OBJECT_NAME":"ONEWEB-0390","OBJECT_ID":"2021-132B","EPOCH":"2025-08-26T22:44:44.676384","MEAN_MOTION":13.17647823,"ECCENTRICITY":0.00015501,"INCLINATION":87.9033,"RA_OF_ASC_NODE":64.4185,"ARG_OF_PERICENTER":95.6557,"MEAN_ANOMALY":264.4752,"EPHEMERIS_TYPE":0,"CLASSIFICATION_TYPE":"U","NORAD_CAT_ID":50470,"ELEMENT_SET_NO":999,"REV_AT_EPOCH":17933,"BSTAR":-0.00019101337,"MEAN_MOTION_DOT":-6.1e-7,"MEAN_MOTION_DDOT":0},{"OBJECT_NAME":"ONEWEB-0391","OBJECT_ID":"2021-132C","EPOCH":"2025-08-26T22:47:11.355936","MEAN_MOTION":13.17649551,"ECCENTRICITY":0.00022445,"INCLINATION":87.9026,"RA_OF_ASC_NODE":64.4322,"ARG_OF_PERICENTER":110.0497,"MEAN_ANOMALY":250.0877,"EPHEMERIS_TYPE":0,"CLASSIFICATION_TYPE":"U","NORAD_CAT_ID":50471,"ELEMENT_SET_NO":999,"REV_AT_EPOCH":17933,"BSTAR":-1.533079e-6,"MEAN_MOTION_DOT":1.2e-7,"MEAN_MOTION_DDOT":0},{"OBJECT_NAME":"ONEWEB-0392","OBJECT_ID":"2021-132D","EPOCH":"2025-08-27T04:58:58.318752","MEAN_MOTION":13.1764974,"ECCENTRICITY":0.00020423,"INCLINATION":87.9035,"RA_OF_ASC_NODE":64.3247,"ARG_OF_PERICENTER":98.2861,"MEAN_ANOMALY":261.8503,"EPHEMERIS_TYPE":0,"CLASSIFICATION_TYPE":"U","NORAD_CAT_ID":50472,"ELEMENT_SET_NO":999,"REV_AT_EPOCH":17940,"BSTAR":9.7170766e-5,"MEAN_MOTION_DOT":5.1e-7,"MEAN_MOTION_DDOT":0},{"OBJECT_NAME":"ONEWEB-0393","OBJECT_ID":"2021-132E","EPOCH":"2025-08-26T22:52:11.029152","MEAN_MOTION":13.17649103,"ECCENTRICITY":0.00021032,"INCLINATION":87.9037,"RA_OF_ASC_NODE":64.3966,"ARG_OF_PERICENTER":97.8872,"MEAN_ANOMALY":262.2498,"EPHEMERIS_TYPE":0,"CLASSIFICATION_TYPE":"U","NORAD_CAT_ID":50473,"ELEMENT_SET_NO":999,"REV_AT_EPOCH":17936,"BSTAR":-0.000325349,"MEAN_MOTION_DOT":-1.13e-6,"MEAN_MOTION_DDOT":0},{"OBJECT_NAME":"ONEWEB-0394","OBJECT_ID":"2021-132F","EPOCH":"2025-08-26T22:11:29.169024","MEAN_MOTION":13.18686047,"ECCENTRICITY":0.00019517,"INCLINATION":87.9159,"RA_OF_ASC_NODE":33.8749,"ARG_OF_PERICENTER":95.6649,"MEAN_ANOMALY":264.4706,"EPHEMERIS_TYPE":0,"CLASSIFICATION_TYPE":"U","NORAD_CAT_ID":50474,"ELEMENT_SET_NO":999,"REV_AT_EPOCH":18281,"BSTAR":0.00015243838,"MEAN_MOTION_DOT":7.3e-7,"MEAN_MOTION_DDOT":0},{"OBJECT_NAME":"ONEWEB-0395","OBJECT_ID":"2021-132G","EPOCH":"2025-08-26T23:12:01.873440","MEAN_MOTION":13.11415582,"ECCENTRICITY":0.00017071,"INCLINATION":87.8772,"RA_OF_ASC_NODE":79.7107,"ARG_OF_PERICENTER":96.67,"MEAN_ANOMALY":263.4622,"EPHEMERIS_TYPE":0,"CLASSIFICATION_TYPE":"U","NORAD_CAT_ID":50475,"ELEMENT_SET_NO":999,"REV_AT_EPOCH":17715,"BSTAR":-0.0014153802,"MEAN_MOTION_DOT":-4.89e-6,"MEAN_MOTION_DDOT":0},{"OBJECT_NAME":"ONEWEB-0396","OBJECT_ID":"2021-132H","EPOCH":"2025-08-27T03:29:46.343328","MEAN_MOTION":13.18686188,"ECCENTRICITY":0.00019018,"INCLINATION":87.9159,"RA_OF_ASC_NODE":33.8431,"ARG_OF_PERICENTER":95.4753,"MEAN_ANOMALY":264.6596,"EPHEMERIS_TYPE":0,"CLASSIFICATION_TYPE":"U","NORAD_CAT_ID":50476,"ELEMENT_SET_NO":999,"REV_AT_EPOCH":18288,"BSTAR":-1.6723038e-5,"MEAN_MOTION_DOT":6.0e-8,"MEAN_MOTION_DDOT":0}]
