ONEWEB-0380             
1 49306U 21090AD  25239.09177128  .00000044  00000+0  76739-4 0  9993
2 49306  87.9271   3.4449 0001940 103.8735 256.2613 13.19725226187631
ONEWEB-0381             
1 49307U 21090AE  25239.22198700  .00000143  00000+0  32097-3 0  9996
2 49307  87.9299 333.0323 0002191 102.1662 257.9717 13.20770500191023
ONEWEB-0382             
1 49308U 21090AF  25239.20933212  .00000078  00000+0  16100-3 0  9994
2 49308  87.9297 333.0257 0002267  98.5461 261.5929 13.20773556191016
ONEWEB-0383             
1 49309U 21090AG  25239.06463144  .00000285  00000+0  73431-3 0  9991
2 49309  87.9094 348.2291 0001972  95.7983 264.3372 13.14502661188950
ONEWEB-0384             
1 49310U 21090AH  25238.97735096 -.00002417  00000+0 -59751-2 0  9999
2 49310  87.9319 333.0943 0002464  98.4721 261.6691 13.20799647190995
ONEWEB-0385             
1 49311U 21090AJ  25239.20146145  .00000183  00000+0  41855-3 0  9991
2 49311  87.9288 333.0401 0002073  99.3273 260.8095 13.20772021190994
ONEWEB-0386             
1 49312U 21090AK  25239.21881832  .00000113  00000+0  24588-3 0  9999
2 49312  87.9299 333.0106 0002196  96.4224 263.7159 13.20771117191011
ONEWEB-0387             
1 49313U 21090AL  25238.97575720  .00000099  00000+0  21072-3 0  9996
2 49313  87.9288 333.1142 0002167 106.1085 254.0287 13.20773451190986
ONEWEB-0388             
1 49314U 21090AM  25239.08705852  .00000038  00000+0  62447-4 0  9996
2 49314  87.9269   3.4521 0001955  97.0930 263.0425 13.19724368187627
ONEWEB-0389             
1 50469U 21132A   25238.94607061  .00000010  00000+0 -77852-5 0  9991
2 50469  87.9033  64.4128 0002065  95.7762 264.3605 13.17648649179338
ONEWEB-0390             
1 50470U 21132B   25238.94773931 -.00000061  00000+0 -19101-3 0  9991
2 50470  87.9033  64.4185 0001550  95.6557 264.4752 13.17647823179339
ONEWEB-0391             
1 50471U 21132C   25238.94943699  .00000012  00000+0 -15331-5 0  9990
2 50471  87.9026  64.4322 0002244 110.0497 250.0877 13.17649551179330
ONEWEB-0392             
1 50472U 21132D   25239.20761943  .00000051  00000+0  97171-4 0  9994
2 50472  87.9035  64.3247 0002042  98.2861 261.8503 13.17649740179408
ONEWEB-0393             
1 50473U 21132E   25238.95290543 -.00000113  00000+0 -32535-3 0  9992
2 50473  87.9037  64.3966 0002103  97.8872 262.2498 13.17649103179360
ONEWEB-0394             
1 50474U 21132F   25238.92464316  .00000073  00000+0  15244-3 0  9992
2 50474  87.9159  33.8749 0001951  95.6649 264.4706 13.18686047182813
ONEWEB-0395             
1 50475U 21132G   25238.96668835 -.00000489  00000+0 -14154-2 0  9990
2 50475  87.8772  79.7107 0001707  96.6700 263.4622 13.11415582177153
ONEWEB-0396             
1 50476U 21132H   25239.14567527  .00000006  00000+0 -16723-4 0  9998
2 50476  87.9159  33.8431 0001901  95.4753 264.6596 13.18686188182884
